HULIANWANG DIGUI-01     
1 62323U 24240A   26064.79945750  .00000063  00000+0  11328-3 0  9998
2 62323  86.5031  18.0929 0001949  85.6421 274.4935 13.24420566 58953
HULIANWANG DIGUI-02     
1 62324U 24240B   26064.80691825  .00000069  00000+0  12570-3 0  9998
2 62324  86.5060  18.2206 0001876  89.4271 270.7078 13.24422160 58960
HULIANWANG DIGUI-03     
1 62325U 24240C   26064.79178541  .00000052  00000+0  86369-4 0  9992
2 62325  86.5013  18.0150 0002030  84.4040 275.7326 13.24422130 58954
HULIANWANG DIGUI-04     
1 62326U 24240D   26064.85981147  .00000046  00000+0  72296-4 0  9991
2 62326  86.5023  18.0238 0002061  85.0842 275.0528 13.24421870 58962
HULIANWANG DIGUI-05     
1 62327U 24240E   26064.85230545  .00000034  00000+0  44478-4 0  9999
2 62327  86.5075  18.2461 0002087  84.0354 276.1018 13.24421082 58966
HULIANWANG DIGUI-06     
1 62328U 24240F   26064.83709516  .00000045  00000+0  71426-4 0  9992
2 62328  86.5013  17.9696 0002042  88.3725 271.7643 13.24423009 58961
HULIANWANG DIGUI-07     
1 62329U 24240G   26064.82963808  .00000069  00000+0  12554-3 0  9990
2 62329  86.4984  17.8402 0002023  86.6378 273.4987 13.24421171 58964
HULIANWANG DIGUI-08     
1 62330U 24240H   26064.84476748  .00000041  00000+0  60566-4 0  9993
2 62330  86.5067  18.2059 0002134  85.1567 274.9811 13.24421016 58969
HULIANWANG DIGUI-09     
1 62331U 24240J   26064.82201132  .00000071  00000+0  13149-3 0  9992
2 62331  86.5032  18.1087 0001982  88.7729 271.3632 13.24422345 58958
HULIANWANG DIGUI-10     
1 62332U 24240K   26064.81449723  .00000075  00000+0  14006-3 0  9999
2 62332  86.5062  18.2338 0001976  90.7204 269.4157 13.24421729 58951
HULIANWANG DIGUI-11     
1 62971U 25030A   26064.78838590 -.00000082  00000+0  89924-4 0  9997
2 62971  49.9992 246.6907 0000741 168.3036 191.7853 13.29337817 52108
HULIANWANG DIGUI-12     
1 62972U 25030B   26064.79662578 -.00000088  00000+0  76674-4 0  9994
2 62972  50.0008 246.7802 0000884 163.3578 196.7323 13.29339945 52100
HULIANWANG DIGUI-13     
1 62973U 25030C   26064.78000051 -.00000085  00000+0  85039-4 0  9998
2 62973  50.0011 246.7055 0000715 155.1854 204.9052 13.29337951 52100
HULIANWANG DIGUI-14     
1 62974U 25030D   26064.83017832 -.00000083  00000+0  89296-4 0  9997
2 62974  50.0016 246.3237 0000797 154.6928 205.3983 13.29337812 52115
HULIANWANG DIGUI-15     
1 62975U 25030E   26064.77168242 -.00000083  00000+0  88692-4 0  9992
2 62975  50.0012 246.6648 0000695 162.5279 197.5617 13.29337983 52109
HULIANWANG DIGUI-16     
1 62976U 25030F   26064.82177445 -.00000098  00000+0  56937-4 0  9997
2 62976  50.0034 246.3329 0000795 151.8915 208.2000 13.29338441 52113
HULIANWANG DIGUI-17     
1 62977U 25030G   26064.81345705 -.00000087  00000+0  80187-4 0  9995
2 62977  50.0046 246.3287 0000759 159.5390 200.5513 13.29338265 52110
HULIANWANG DIGUI-18     
1 62978U 25030H   26064.80508392 -.00000087  00000+0  80778-4 0  9994
2 62978  50.0051 246.2953 0000771 159.8047 200.2856 13.29338280 52116
HULIANWANG DIGUI-19     
1 62979U 25030J   26064.83829333 -.00000079  00000+0  96814-4 0  9998
2 62979  50.0036 246.4241 0000816 155.2252 204.8660 13.29341507 52119
HULIANWANG DIGUI-20     
1 63687U 25086A   26064.82591032  .00000072  00000+0  13406-3 0  9994
2 63687  86.5125 347.9380 0001744  91.6610 268.4724 13.24420245 41197
HULIANWANG DIGUI-21     
1 63688U 25086B   26064.83340176  .00000060  00000+0  10648-3 0  9999
2 63688  86.5154 347.9649 0001634  94.5653 265.5667 13.24421850 41181
HULIANWANG DIGUI-22     
1 63689U 25086C   26064.84096583  .00000066  00000+0  11885-3 0  9991
2 63689  86.5119 347.8653 0001808  91.7295 268.4046 13.24421605 41182
HULIANWANG DIGUI-23     
1 63690U 25086D   26064.78047580  .00000060  00000+0  10485-3 0  9998
2 63690  86.5160 348.0224 0001750  88.0485 272.0849 13.24422300 41177
HULIANWANG DIGUI-24     
1 63691U 25086E   26064.78808875  .00000077  00000+0  14479-3 0  9996
2 63691  86.5166 348.0465 0001786  92.3014 267.8325 13.24420424 41172
HULIANWANG DIGUI-25     
1 63692U 25086F   26064.79562023  .00000083  00000+0  15945-3 0  9996
2 63692  86.5105 347.8655 0001685  91.3029 268.8298 13.24421817 41174
HULIANWANG DIGUI-26     
1 63693U 25086G   26064.84839580  .00000053  00000+0  89461-4 0  9990
2 63693  86.5154 347.9745 0001766  96.4208 263.7127 13.24421343 41185
HULIANWANG DIGUI-27     
1 63694U 25086H   26064.80325439  .00000086  00000+0  16563-3 0  9998
2 63694  86.5115 347.8975 0001794  91.3252 268.8088 13.24420187 41177
HULIANWANG DIGUI-28     
1 63695U 25086J   26064.81828613  .00000083  00000+0  15913-3 0  9997
2 63695  86.5080 347.7967 0001794  91.3867 268.7472 13.24421537 41177
HULIANWANG DIGUI-29     
1 63696U 25086K   26064.81081038  .00000093  00000+0  18161-3 0  9999
2 63696  86.5107 347.8795 0001677  91.8897 268.2429 13.24420380 41178
HULIANWANG DIGUI-30     
1 64283U 25121A   26064.74263087  .00000057  00000+0  98283-4 0  9994
2 64283  86.4949  48.4568 0001992  78.3388 281.7969 13.24423406 36468
HULIANWANG DIGUI-31     
1 64284U 25121B   26064.81084755  .00000043  00000+0  66231-4 0  9999
2 64284  86.4969  48.4844 0002013  78.6624 281.4736 13.24419580 36477
HULIANWANG DIGUI-32     
1 64285U 25121C   26064.80293463  .00000027  00000+0  28569-4 0  9991
2 64285  86.4910  48.3163 0002009  80.6452 279.4910 13.24425224 36477
HULIANWANG DIGUI-33     
1 64286U 25121D   26064.79535892  .00000019  00000+0  10075-4 0  9999
2 64286  86.4968  48.4743 0002078  77.6168 282.5198 13.24425384 36472
HULIANWANG DIGUI-34     
1 64287U 25121E   26064.86340314  .00000022  00000+0  17408-4 0  9992
2 64287  86.4946  48.3831 0002207  73.6104 286.5272 13.24424344 36489
HULIANWANG DIGUI-35     
1 64956U 25159A   26064.82986935  .00000054  00000+0  91008-4 0  9990
2 64956  86.4984 317.3686 0001270  72.4409 287.6863 13.24417256 29445
HULIANWANG DIGUI-36     
1 64957U 25159B   26064.82212110  .00000061  00000+0  10749-3 0  9998
2 64957  86.5004 317.4090 0001349  71.1884 288.9396 13.24419857 29444
HULIANWANG DIGUI-37     
1 64958U 25159C   26064.81457932  .00000079  00000+0  15038-3 0  9996
2 64958  86.4945 317.2733 0001437  68.5048 291.6239 13.24419474 29442
HULIANWANG DIGUI-38     
1 64959U 25159D   26064.80704424  .00000087  00000+0  16925-3 0  9992
2 64959  86.5004 317.4018 0001421  70.9065 289.2223 13.24419631 29448
HULIANWANG DIGUI-39     
1 64960U 25159E   26064.79947681  .00000093  00000+0  18338-3 0  9993
2 64960  86.4979 317.3441 0001425  72.5555 287.5734 13.24419772 29449
HULIANWANG DIGUI-40     
1 65043U 25162A   26064.79463522 -.00000063  00000+0  13173-3 0  9997
2 65043  49.9988 276.7996 0001031  75.9580 284.1406 13.29332335 29596
HULIANWANG DIGUI-41     
1 65044U 25162B   26064.78628285 -.00000078  00000+0  10028-3 0  9998
2 65044  49.9999 276.7736 0001071  75.6243 284.4748 13.29332667 29600
HULIANWANG DIGUI-42     
1 65045U 25162C   26064.77790162 -.00000079  00000+0  96315-4 0  9997
2 65045  49.9964 276.6681 0001011  77.2913 282.8072 13.29332067 29603
HULIANWANG DIGUI-43     
1 65046U 25162D   26064.84470593 -.00000070  00000+0  11621-3 0  9996
2 65046  49.9980 276.3868 0001003  75.9339 284.1644 13.29333159 29618
HULIANWANG DIGUI-44     
1 65047U 25162E   26064.76087911 -.00000063  00000+0  13207-3 0  9990
2 65047  50.0008 276.6594 0000761 355.2480   4.8385 13.29340770 29619
HULIANWANG DIGUI-45     
1 65048U 25162F   26064.75285467 -.00000075  00000+0  10620-3 0  9995
2 65048  50.0037 276.6714 0001054  76.5554 283.5435 13.29333001 29607
HULIANWANG DIGUI-46     
1 65049U 25162G   26064.74449924 -.00000077  00000+0  10241-3 0  9996
2 65049  50.0055 276.6608 0001054  78.3286 281.7705 13.29332898 29605
HULIANWANG DIGUI-47     
1 65050U 25162H   26064.81132184 -.00000067  00000+0  12228-3 0  9999
2 65050  50.0020 276.2854 0001039  79.8394 280.2595 13.29332785 29614
HULIANWANG DIGUI-48     
1 65051U 25162J   26064.80299057 -.00000071  00000+0  11326-3 0  9995
2 65051  50.0030 276.2592 0001029  77.4007 282.6980 13.29332253 29613
HULIANWANG DIGUI-49     
1 65106U 25168A   26064.78939523 -.00000035  00000+0  19257-3 0  9999
2 65106  50.0049 336.8134 0007420 153.9733 206.1513 13.29338837 28937
HULIANWANG DIGUI-50     
1 65107U 25168B   26064.78099274 -.00000031  00000+0  20047-3 0  9995
2 65107  50.0019 336.7127 0008385 139.9921 220.1570 13.29339500 28937
HULIANWANG DIGUI-51     
1 65108U 25168C   26064.77262737 -.00000036  00000+0  19016-3 0  9990
2 65108  50.0056 336.7389 0009742 139.9471 220.2121 13.29339769 28937
HULIANWANG DIGUI-52     
1 65109U 25168D   26064.83956692 -.00000038  00000+0  18512-3 0  9990
2 65109  50.0050 336.4088 0009620 153.0559 207.0814 13.29338399 28945
HULIANWANG DIGUI-53     
1 65110U 25168E   26064.83121183 -.00000042  00000+0  17613-3 0  9997
2 65110  50.0057 336.3872 0008428 142.7033 217.4425 13.29338257 28947
HULIANWANG DIGUI-54     
1 65111U 25168F   26064.80633538 -.00000030  00000+0  20188-3 0  9995
2 65111  50.0008 336.1669 0010011 148.0104 212.1377 13.29335491 28940
HULIANWANG DIGUI-55     
1 65112U 25168G   26064.82278366 -.00000042  00000+0  17681-3 0  9999
2 65112  50.0013 336.2605 0011302 143.8435 216.3203 13.29338964 28944
HULIANWANG DIGUI-56     
1 65113U 25168H   26064.81444957 -.00000043  00000+0  17389-3 0  9996
2 65113  50.0005 336.2016 0010999 165.8419 194.2763 13.29338337 28948
HULIANWANG DIGUI-57     
1 65114U 25168J   26064.79800649 -.00000030  00000+0  20192-3 0  9990
2 65114  50.0033 336.1712 0008747 156.2485 203.8792 13.29335323 28959
HULIANWANG DIGUI-58     
1 65164U 25174A   26064.76541951  .00000048  00000+0  78456-4 0  9992
2 65164  86.4926 286.9583 0001260  87.9482 272.1796 13.24421123 27104
HULIANWANG DIGUI-59     
1 65165U 25174B   26064.77297031  .00000073  00000+0  13478-3 0  9991
2 65165  86.4886 286.8850 0001246  87.2183 272.9094 13.24421322 27101
